start=new Date('2022-01-20T00:00:00.000Z').valueOf();
sats=[{"EPHEMERIS_TYPE":"0","GP_ID":"194191776","RA_OF_ASC_NODE":"262.9383","SEMIMAJOR_AXIS":"6925.411","BSTAR":"0.00001866300000","COUNTRY_CODE":"US","INCLINATION":"53.0538","ECCENTRICITY":"0.00018650","TIME_SYSTEM":"UTC","FILE":"3277432","TLE_LINE2":"2 46744  53.0538 262.9383 0001865  66.8700 293.2485 15.06379564 68992","PERIAPSIS":"545.985","SITE":"AFETR","ARG_OF_PERICENTER":"66.8700","REF_FRAME":"TEME","ELEMENT_SET_NO":"999","OBJECT_TYPE":"PAYLOAD","EPOCH":"2022-01-19T02:14:15.172224","RCS_SIZE":"LARGE","MEAN_MOTION_DOT":"-0.00000004","OBJECT_ID":"2020-074F","REV_AT_EPOCH":"6899","MEAN_MOTION_DDOT":"0.0000000000000","CENTER_NAME":"EARTH","PERIOD":"95.593","CLASSIFICATION_TYPE":"U","LAUNCH_DATE":"2020-10-24","MEAN_ELEMENT_THEORY":"SGP4","NORAD_CAT_ID":"46744","MEAN_MOTION":"15.06379564","DECAY_DATE":null,"APOAPSIS":"548.568","TLE_LINE1":"1 46744U 20074F   22019.09323116 -.00000004  00000-0  18663-4 0  9990","MEAN_ANOMALY":"293.2485","OBJECT_NAME":"STARLINK-1894"},{"MEAN_ELEMENT_THEORY":"SGP4","CLASSIFICATION_TYPE":"U","LAUNCH_DATE":"2020-10-24","PERIOD":"93.235","CENTER_NAME":"EARTH","MEAN_MOTION_DDOT":"0.0000000000000","TLE_LINE1":"1 46745U 20074G   22019.05377830  .00014864  00000-0  32410-3 0  9992","MEAN_ANOMALY":"242.5029","OBJECT_NAME":"STARLINK-1898","APOAPSIS":"435.536","NORAD_CAT_ID":"46745","DECAY_DATE":null,"MEAN_MOTION":"15.44486917","MEAN_MOTION_DOT":"0.00014864","REV_AT_EPOCH":"6921","OBJECT_ID":"2020-074G","ARG_OF_PERICENTER":"117.6372","SITE":"AFETR","TLE_LINE2":"2 46745  53.0540 246.9548 0003887 117.6372 242.5029 15.44486917 69217","PERIAPSIS":"430.241","TIME_SYSTEM":"UTC","FILE":"3277432","EPOCH":"2022-01-19T01:17:26.445120","OBJECT_TYPE":"PAYLOAD","RCS_SIZE":"LARGE","ELEMENT_SET_NO":"999","REF_FRAME":"TEME","RA_OF_ASC_NODE":"246.9548","GP_ID":"194193027","BSTAR":"0.00032410000000","SEMIMAJOR_AXIS":"6811.023","EPHEMERIS_TYPE":"0","ECCENTRICITY":"0.00038870","COUNTRY_CODE":"US","INCLINATION":"53.0540"},{"CLASSIFICATION_TYPE":"U","LAUNCH_DATE":"2020-10-24","MEAN_ELEMENT_THEORY":"SGP4","MEAN_MOTION_DDOT":"0.0000000000000","PERIOD":"95.593","CENTER_NAME":"EARTH","APOAPSIS":"548.549","MEAN_ANOMALY":"292.1048","TLE_LINE1":"1 46746U 20074H   22019.37336511  .00001291  00000-0  10559-3 0  9999","OBJECT_NAME":"STARLINK-1905","MEAN_MOTION":"15.06380472","DECAY_DATE":null,"NORAD_CAT_ID":"46746","OBJECT_ID":"2020-074H","REV_AT_EPOCH":"6903","MEAN_MOTION_DOT":"0.00001291","TLE_LINE2":"2 46746  53.0551 261.6893 0001842  68.0136 292.1048 15.06380472 69032","SITE":"AFETR","PERIAPSIS":"545.998","ARG_OF_PERICENTER":"68.0136","FILE":"3277432","TIME_SYSTEM":"UTC","RCS_SIZE":"LARGE","OBJECT_TYPE":"PAYLOAD","EPOCH":"2022-01-19T08:57:38.745504","REF_FRAME":"TEME","ELEMENT_SET_NO":"999","SEMIMAJOR_AXIS":"6925.408","BSTAR":"0.00010559000000","RA_OF_ASC_NODE":"261.6893","GP_ID":"194192778","EPHEMERIS_TYPE":"0","ECCENTRICITY":"0.00018420","INCLINATION":"53.0551","COUNTRY_CODE":"US"},{"MEAN_MOTION_DOT":"-0.00000874","OBJECT_ID":"2020-074J","REV_AT_EPOCH":"6898","MEAN_MOTION_DDOT":"0.0000000000000","CENTER_NAME":"EARTH","PERIOD":"95.594","CLASSIFICATION_TYPE":"U","LAUNCH_DATE":"2020-10-24","MEAN_ELEMENT_THEORY":"SGP4","NORAD_CAT_ID":"46747","MEAN_MOTION":"15.06373852","DECAY_DATE":null,"APOAPSIS":"548.722","MEAN_ANOMALY":"292.3848","TLE_LINE1":"1 46747U 20074J   22019.02320581 -.00000874  00000-0 -39784-4 0  9992","OBJECT_NAME":"STARLINK-1908","EPHEMERIS_TYPE":"0","GP_ID":"194192026","RA_OF_ASC_NODE":"263.2521","SEMIMAJOR_AXIS":"6925.429","BSTAR":"-0.00003978400000","COUNTRY_CODE":"US","INCLINATION":"53.0544","ECCENTRICITY":"0.00020630","TIME_SYSTEM":"UTC","FILE":"3277432","TLE_LINE2":"2 46747  53.0544 263.2521 0002063  67.7360 292.3848 15.06373852 68989","SITE":"AFETR","PERIAPSIS":"545.865","ARG_OF_PERICENTER":"67.7360","REF_FRAME":"TEME","ELEMENT_SET_NO":"999","OBJECT_TYPE":"PAYLOAD","EPOCH":"2022-01-19T00:33:24.981984","RCS_SIZE":"LARGE"},{"TIME_SYSTEM":"UTC","FILE":"3277432","ARG_OF_PERICENTER":"65.2936","TLE_LINE2":"2 46748  53.0547 262.6402 0001847  65.2936 294.8245 15.06378512 69005","SITE":"AFETR","PERIAPSIS":"546.000","ELEMENT_SET_NO":"999","REF_FRAME":"TEME","EPOCH":"2022-01-19T03:55:06.610080","OBJECT_TYPE":"PAYLOAD","RCS_SIZE":"LARGE","EPHEMERIS_TYPE":"0","GP_ID":"194192276","RA_OF_ASC_NODE":"262.6402","BSTAR":"0.00000615260000","SEMIMAJOR_AXIS":"6925.414","COUNTRY_CODE":"US","INCLINATION":"53.0547","ECCENTRICITY":"0.00018470","PERIOD":"95.594","CENTER_NAME":"EARTH","MEAN_MOTION_DDOT":"0.0000000000000","MEAN_ELEMENT_THEORY":"SGP4","LAUNCH_DATE":"2020-10-24","CLASSIFICATION_TYPE":"U","NORAD_CAT_ID":"46748","DECAY_DATE":null,"MEAN_MOTION":"15.06378512","MEAN_ANOMALY":"294.8245","TLE_LINE1":"1 46748U 20074K   22019.16327095 -.00000190  00000-0  61526-5 0  9995","OBJECT_NAME":"STARLINK-1910","APOAPSIS":"548.559","MEAN_MOTION_DOT":"-0.00000190","REV_AT_EPOCH":"6900","OBJECT_ID":"2020-074K"},{"ECCENTRICITY":"0.00017330","COUNTRY_CODE":"US","INCLINATION":"53.0551","RA_OF_ASC_NODE":"259.9256","GP_ID":"194200526","BSTAR":"0.00011102000000","SEMIMAJOR_AXIS":"6925.387","EPHEMERIS_TYPE":"0","EPOCH":"2022-01-19T18:25:34.211712","OBJECT_TYPE":"PAYLOAD","RCS_SIZE":"LARGE","ELEMENT_SET_NO":"999","REF_FRAME":"TEME","ARG_OF_PERICENTER":"68.8114","SITE":"AFETR","TLE_LINE2":"2 46749  53.0551 259.9256 0001733  68.8114 291.3060 15.06387296 69116","PERIAPSIS":"546.052","TIME_SYSTEM":"UTC","FILE":"3277864","MEAN_MOTION_DOT":"0.00001372","REV_AT_EPOCH":"6911","OBJECT_ID":"2020-074L","MEAN_ANOMALY":"291.3060","TLE_LINE1":"1 46749U 20074L   22019.76775708  .00001372  00000-0  11102-3 0  9995","OBJECT_NAME":"STARLINK-1911","APOAPSIS":"548.453","NORAD_CAT_ID":"46749","DECAY_DATE":null,"MEAN_MOTION":"15.06387296","MEAN_ELEMENT_THEORY":"SGP4","LAUNCH_DATE":"2020-10-24","CLASSIFICATION_TYPE":"U","PERIOD":"95.593","CENTER_NAME":"EARTH","MEAN_MOTION_DDOT":"0.0000000000000"},{"OBJECT_ID":"2020-074N","REV_AT_EPOCH":"6898","MEAN_MOTION_DOT":"-0.00000612","MEAN_MOTION":"15.06387390","DECAY_DATE":null,"NORAD_CAT_ID":"46751","APOAPSIS":"548.663","TLE_LINE1":"1 46751U 20074N   22019.03425120 -.00000612  00000-0 -22205-4 0  9993","MEAN_ANOMALY":"288.6066","OBJECT_NAME":"STARLINK-1920","MEAN_MOTION_DDOT":"0.0000000000000","CENTER_NAME":"EARTH","PERIOD":"95.593","CLASSIFICATION_TYPE":"U","LAUNCH_DATE":"2020-10-24","MEAN_ELEMENT_THEORY":"SGP4","INCLINATION":"53.0542","COUNTRY_CODE":"US","ECCENTRICITY":"0.00020370","EPHEMERIS_TYPE":"0","SEMIMAJOR_AXIS":"6925.387","BSTAR":"-0.00002220500000","RA_OF_ASC_NODE":"263.2186","GP_ID":"194193278","REF_FRAME":"TEME","ELEMENT_SET_NO":"999","RCS_SIZE":"LARGE","OBJECT_TYPE":"PAYLOAD","EPOCH":"2022-01-19T00:49:19.303680","FILE":"3277432","TIME_SYSTEM":"UTC","PERIAPSIS":"545.842","TLE_LINE2":"2 46751  53.0542 263.2186 0002037  71.5145 288.6066 15.06387390 68986","SITE":"AFETR","ARG_OF_PERICENTER":"71.5145"},{"TLE_LINE2":"2 46752  53.0535 261.6767 0001835  60.4543 299.6629 15.06384494 69036","SITE":"AFETR","PERIAPSIS":"545.990","ARG_OF_PERICENTER":"60.4543","TIME_SYSTEM":"UTC","FILE":"3277432","OBJECT_TYPE":"PAYLOAD","EPOCH":"2022-01-19T09:02:56.802048","RCS_SIZE":"LARGE","REF_FRAME":"TEME","ELEMENT_SET_NO":"999","RA_OF_ASC_NODE":"261.6767","GP_ID":"194191527","SEMIMAJOR_AXIS":"6925.396","BSTAR":"0.00011094000000","EPHEMERIS_TYPE":"0","ECCENTRICITY":"0.00018350","COUNTRY_CODE":"US","INCLINATION":"53.0535","LAUNCH_DATE":"2020-10-24","CLASSIFICATION_TYPE":"U","MEAN_ELEMENT_THEORY":"SGP4","MEAN_MOTION_DDOT":"0.0000000000000","PERIOD":"95.593","CENTER_NAME":"EARTH","APOAPSIS":"548.532","OBJECT_NAME":"STARLINK-1921","TLE_LINE1":"1 46752U 20074P   22019.37704632  .00001371  00000-0  11094-3 0  9993","MEAN_ANOMALY":"299.6629","NORAD_CAT_ID":"46752","MEAN_MOTION":"15.06384494","DECAY_DATE":null,"MEAN_MOTION_DOT":"0.00001371","OBJECT_ID":"2020-074P","REV_AT_EPOCH":"6903"},{"PERIAPSIS":"546.114","TLE_LINE2":"2 46753  53.0542 260.0313 0001674  74.1983 285.9191 15.06380574 69112","SITE":"AFETR","ARG_OF_PERICENTER":"74.1983","FILE":"3277723","TIME_SYSTEM":"UTC","RCS_SIZE":"LARGE","OBJECT_TYPE":"PAYLOAD","EPOCH":"2022-01-19T17:48:25.569504","REF_FRAME":"TEME","ELEMENT_SET_NO":"999","SEMIMAJOR_AXIS":"6925.408","BSTAR":"0.00018423000000","GP_ID":"194198385","RA_OF_ASC_NODE":"260.0313","EPHEMERIS_TYPE":"0","ECCENTRICITY":"0.00016740","INCLINATION":"53.0542","COUNTRY_CODE":"US","LAUNCH_DATE":"2020-10-24","CLASSIFICATION_TYPE":"U","MEAN_ELEMENT_THEORY":"SGP4","MEAN_MOTION_DDOT":"0.0000000000000","PERIOD":"95.593","CENTER_NAME":"EARTH","APOAPSIS":"548.432","TLE_LINE1":"1 46753U 20074Q   22019.74196261  .00002462  00000-0  18423-3 0  9993","MEAN_ANOMALY":"285.9191","OBJECT_NAME":"STARLINK-1922","MEAN_MOTION":"15.06380574","DECAY_DATE":null,"NORAD_CAT_ID":"46753","OBJECT_ID":"2020-074Q","REV_AT_EPOCH":"6911","MEAN_MOTION_DOT":"0.00002462"},{"TLE_LINE1":"1 46754U 20074R   22019.15220807  .00000571  00000-0  57273-4 0  9999","OBJECT_NAME":"STARLINK-1923","MEAN_ANOMALY":"289.3996","APOAPSIS":"548.687","NORAD_CAT_ID":"46754","DECAY_DATE":null,"MEAN_MOTION":"15.06380683","MEAN_ELEMENT_THEORY":"SGP4","LAUNCH_DATE":"2020-10-24","CLASSIFICATION_TYPE":"U","PERIOD":"95.593","CENTER_NAME":"EARTH","MEAN_MOTION_DDOT":"0.0000000000000","MEAN_MOTION_DOT":"0.00000571","REV_AT_EPOCH":"6900","OBJECT_ID":"2020-074R","EPOCH":"2022-01-19T03:39:10.777248","OBJECT_TYPE":"PAYLOAD","RCS_SIZE":"LARGE","ELEMENT_SET_NO":"999","REF_FRAME":"TEME","ARG_OF_PERICENTER":"70.7214","PERIAPSIS":"545.859","TLE_LINE2":"2 46754  53.0538 262.6810 0002042  70.7214 289.3996 15.06380683 69007","SITE":"AFETR","TIME_SYSTEM":"UTC","FILE":"3277432","ECCENTRICITY":"0.00020420","COUNTRY_CODE":"US","INCLINATION":"53.0538","GP_ID":"194193028","RA_OF_ASC_NODE":"262.6810","BSTAR":"0.00005727300000","SEMIMAJOR_AXIS":"6925.408","EPHEMERIS_TYPE":"0"}];
